COSMOS 2361 [-]         
1 25590U 98076A   19052.01505323  .00000019  00000-0  47911-5 0  9994
2 25590  82.9353  22.3025 0031177 341.1102  83.5492 13.72960311 10160
COSMOS 2378 [-]         
1 26818U 01023A   19051.80800284  .00000019  00000-0  42335-5 0  9999
2 26818  82.9267  42.7161 0031847 292.3348  67.4418 13.73930939887792
COSMOS 2389 [-]         
1 27436U 02026A   19052.22502000  .00000037  00000-0  22492-4 0  9993
2 27436  82.9542 346.8922 0046822 156.2295 312.6110 13.74932838839844
COSMOS 2398 [-]         
1 27818U 03023A   19051.65111546  .00000018  00000-0  28759-5 0  9994
2 27818  82.9500 304.9987 0031303 176.8936 183.2415 13.72164404787066
COSMOS 2407 [+]         
1 28380U 04028A   19051.76028743  .00000043  00000-0  27894-4 0  9999
2 28380  82.9576 254.1300 0039381 166.1245 194.1001 13.76061849732388
COSMOS 2414 [+]         
1 28521U 05002A   19052.06548803  .00000029  00000-0  11103-4 0  9997
2 28521  82.9476 264.7559 0041436  31.0645 329.2959 13.87607565713414
COSMOS 2429 [-]         
1 32052U 07038A   19051.99407325  .00000015  00000-0 -41960-6 0  9998
2 32052  82.9824  15.5662 0039346 137.5057 222.9157 13.74911634574390
COSMOS 2454 [-]         
1 35635U 09039A   19052.08279033  .00000037  00000-0  17718-4 0  9990
2 35635  82.9531 253.3472 0019285 350.4532   9.6261 13.89636319486310
COSMOS 2463 [+]         
1 36519U 10017A   19051.95763480  .00000151  00000-0  15112-3 0  9991
2 36519  82.9582  53.3606 0036201 348.8797  11.1552 13.71434110441594
